COSMOS 1933             
1 18958U 88020A   25358.62474595  .00004344  00000+0  21703-3 0  9994
2 18958  82.5141 325.1345 0006318  96.5253 263.6699 15.17204916 38845
SL-3 R/B                
1 19046U 88032B   25358.85233073  .00005096  00000+0  24538-3 0  9999
2 19046  97.5097 337.4900 0027906 131.9139 228.4482 15.18858401 40742
SL-16 R/B               
1 19120U 88039B   25358.72580759 -.00000017  00000+0  14814-4 0  9997
2 19120  71.0130 227.0556 0019541  95.7743 264.5610 14.19599514947742
COSMOS 1953             
1 19210U 88050A   25351.75027580  .00004793  00000+0  17925-3 0  9993
2 19210  82.5093 240.5536 0013540  56.0210 304.2313 15.26995692 25270
SL-8 R/B                
1 19257U 88053B   25358.77630919  .00000253  00000+0  90609-4 0  9990
2 19257  74.0469 250.5366 0018955  90.1479 327.3246 14.38866313965821
COSMOS 1975             
1 19573U 88093A   25358.57973047  .00007670  00000+0  29079-3 0  9997
2 19573  82.5189 192.9743 0013051  75.7024 284.5663 15.26631214  7945
SL-14 R/B               
1 19574U 88093B   25358.84247294  .00000554  00000+0  61190-4 0  9991
2 19574  82.5316 112.3102 0019266 286.9984 190.4061 14.85561741989923
SL-16 R/B               
1 19650U 88102B   25358.60778638  .00000152  00000+0  10066-3 0  9991
2 19650  71.0007 309.4712 0012354 131.5487 228.6698 14.16141974916261
INTERCOSMOS 24          
1 20261U 89080A   25358.81987839  .00000724  00000+0  20396-3 0  9997
2 20261  82.6053 153.0992 1189009 106.5095 266.9787 12.59458720657376
SL-14 R/B               
1 20262U 89080C   25358.74506069  .00000313  00000+0  90906-4 0  9991
2 20262  82.5915 221.3137 1230440 356.1551   3.0698 12.50422465650786
DELTA 1 R/B             
1 20323U 89089B   25358.84908575  .00000343  00000+0  93710-4 0  9996
2 20323  97.0743 213.1669 0069152   0.3831 359.7408 14.50581603884883
ARIANE 40 R/B           
1 20443U 90005H   25358.76173418  .00000277  00000+0  10182-3 0  9997
2 20443  98.3227  56.5991 0011174  73.1706 287.0708 14.39806964882021
